$$SOE
2460721.500000000, A.D. 2025-Feb-15 00:00:00.0000, 3.618596874600657E+08, -3.031729557212393E+08, -3.443293061299050E+07,
2460728.500000000, A.D. 2025-Feb-22 00:00:00.0000, 3.682110407867036E+08, -2.964615360787083E+08, -3.474170795862947E+07,
2460735.500000000, A.D. 2025-Mar-01 00:00:00.0000, 3.743945537030252E+08, -2.896150310006225E+08, -3.503464805514437E+07,
2460742.500000000, A.D. 2025-Mar-08 00:00:00.0000, 3.804080914744346E+08, -2.826370879829063E+08, -3.531168139755791E+07,
2460749.500000000, A.D. 2025-Mar-15 00:00:00.0000, 3.862495758949849E+08, -2.755313547251254E+08, -3.557274266141912E+07,
2460756.500000000, A.D. 2025-Mar-22 00:00:00.0000, 3.919169815359064E+08, -2.683014791582501E+08, -3.581777035648762E+07,
2460763.500000000, A.D. 2025-Mar-29 00:00:00.0000, 3.974083334393001E+08, -2.609511117792047E+08, -3.604670679616413E+07,
2460770.500000000, A.D. 2025-Apr-05 00:00:00.0000, 4.027217065813230E+08, -2.534839071502141E+08, -3.625949815614524E+07,
2460777.500000000, A.D. 2025-Apr-12 00:00:00.0000, 4.078552251787204E+08, -2.459035244563726E+08, -3.645609443734510E+07,
2460784.500000000, A.D. 2025-Apr-19 00:00:00.0000, 4.128070616510490E+08, -2.382136280004729E+08, -3.663644938813277E+07,
2460791.500000000, A.D. 2025-Apr-26 00:00:00.0000, 4.175754355096622E+08, -2.304178878357580E+08, -3.680052042756157E+07,
2460798.500000000, A.D. 2025-May-03 00:00:00.0000, 4.221586122866448E+08, -2.225199805151145E+08, -3.694826857858936E+07,
2460805.500000000, A.D. 2025-May-10 00:00:00.0000, 4.265549025319077E+08, -2.145235899459676E+08, -3.707965841331577E+07,
2460812.500000000, A.D. 2025-May-17 00:00:00.0000, 4.307626609146810E+08, -2.064324083900716E+08, -3.719465801704077E+07,
2460819.500000000, A.D. 2025-May-24 00:00:00.0000, 4.347802856025024E+08, -1.982501376607177E+08, -3.729323899157568E+07,
2460826.500000000, A.D. 2025-May-31 00:00:00.0000, 4.386062183348771E+08, -1.899804902039221E+08, -3.737537651067929E+07,
2460833.500000000, A.D. 2025-Jun-07 00:00:00.0000, 4.422389447916489E+08, -1.816271888567103E+08, -3.744104929237428E+07,
2460840.500000000, A.D. 2025-Jun-14 00:00:00.0000, 4.456769928932352E+08, -1.731939659491833E+08, -3.749023932584646E+07,
2460847.500000000, A.D. 2025-Jun-21 00:00:00.0000, 4.489189302488765E+08, -1.646845650219905E+08, -3.752293173188144E+07,
2460854.500000000, A.D. 2025-Jun-28 00:00:00.0000, 4.519633638789339E+08, -1.561027433931067E+08, -3.753911489935677E+07,
2460861.500000000, A.D. 2025-Jul-05 00:00:00.0000, 4.548089406932662E+08, -1.474522734154778E+08, -3.753878058220869E+07,
2460868.500000000, A.D. 2025-Jul-12 00:00:00.0000, 4.574543475340327E+08, -1.387369432288892E+08, -3.752192391324420E+07,
2460875.500000000, A.D. 2025-Jul-19 00:00:00.0000, 4.598983109724621E+08, -1.299605575787232E+08, -3.748854339904001E+07,
2460882.500000000, A.D. 2025-Jul-26 00:00:00.0000, 4.621395970707588E+08, -1.211269387558065E+08, -3.743864091977964E+07,
2460889.500000000, A.D. 2025-Aug-02 00:00:00.0000, 4.641770111769230E+08, -1.122399276341309E+08, -3.737222173833928E+07,
2460896.500000000, A.D. 2025-Aug-09 00:00:00.0000, 4.660093977785748E+08, -1.033033848205357E+08, -3.728929452206858E+07,
2460903.500000000, A.D. 2025-Aug-16 00:00:00.0000, 4.676356404947081E+08, -9.432119197975090E+07, -3.718987138952796E+07,
2460910.500000000, A.D. 2025-Aug-23 00:00:00.0000, 4.690546624985813E+08, -8.529725331839974E+07, -3.707396800756449E+07,
2460917.500000000, A.D. 2025-Aug-30 00:00:00.0000, 4.702654277004018E+08, -7.623549651286501E+07, -3.694160371025126E+07,
2460924.500000000, A.D. 2025-Sep-06 00:00:00.0000, 4.712669412729805E+08, -6.713987207895309E+07, -3.679280142755175E+07,
2460931.500000000, A.D. 2025-Sep-13 00:00:00.0000, 4.720582478521279E+08, -5.801435366590648E+07, -3.662758747321217E+07,
2460938.500000000, A.D. 2025-Sep-20 00:00:00.0000, 4.726384306851911E+08, -4.886294091906863E+07, -3.644599162626389E+07,
2460945.500000000, A.D. 2025-Sep-27 00:00:00.0000, 4.730066127856674E+08, -3.968966179760993E+07, -3.624804734859066E+07,
2460952.500000000, A.D. 2025-Oct-04 00:00:00.0000, 4.731619580784901E+08, -3.049857380557175E+07, -3.603379190931949E+07,
2460959.500000000, A.D. 2025-Oct-11 00:00:00.0000, 4.731036721646653E+08, -2.129376507708809E+07, -3.580326645883891E+07,
2460966.500000000, A.D. 2025-Oct-18 00:00:00.0000, 4.728310029916213E+08, -1.207935558819151E+07, -3.555651610105684E+07,
2460973.500000000, A.D. 2025-Oct-25 00:00:00.0000, 4.723432415717604E+08, -2.859498482243441E+06, -3.529358997608530E+07,
2460980.500000000, A.D. 2025-Nov-01 00:00:00.0000, 4.716397227918217E+08, 6.361618508393422E+06, -3.501454135607439E+07,
2460987.500000000, A.D. 2025-Nov-08 00:00:00.0000, 4.707198263509133E+08, 1.557977151483848E+07, -3.471942776035382E+07,
2460994.500000000, A.D. 2025-Nov-15 00:00:00.0000, 4.695829779782765E+08, 2.479069880138094E+07, -3.440831110868207E+07,
2461001.500000000, A.D. 2025-Nov-22 00:00:00.0000, 4.682286513357765E+08, 3.399009907399708E+07, -3.408125793195933E+07,
2461008.500000000, A.D. 2025-Nov-29 00:00:00.0000, 4.666563704533626E+08, 4.317363096542709E+07, -3.373833953383884E+07,
2461015.500000000, A.D. 2025-Dec-06 00:00:00.0000, 4.648657104237867E+08, 5.233691356486591E+07, -3.337963190572893E+07,
2461022.500000000, A.D. 2025-Dec-13 00:00:00.0000, 4.628562967959395E+08, 6.147552462439770E+07, -3.300521571092247E+07,
2461029.500000000, A.D. 2025-Dec-20 00:00:00.0000, 4.606278071629338E+08, 7.058499746707639E+07, -3.261517657502111E+07,
2461036.500000000, A.D. 2025-Dec-27 00:00:00.0000, 4.581799738732937E+08, 7.966081919155321E+07, -3.220960537253997E+07,
2461043.500000000, A.D. 2026-Jan-03 00:00:00.0000, 4.555125864097913E+08, 8.869842956210385E+07, -3.178859842632287E+07,
2461050.500000000, A.D. 2026-Jan-10 00:00:00.0000, 4.526254935500750E+08, 9.769321990967481E+07, -3.135225768550332E+07,
2461057.500000000, A.D. 2026-Jan-17 00:00:00.0000, 4.495186055461007E+08, 1.066405319572611E+08, -3.090069091099050E+07,
2461064.500000000, A.D. 2026-Jan-24 00:00:00.0000, 4.461918964048890E+08, 1.155356565976615E+08, -3.043401187391473E+07,
2461071.500000000, A.D. 2026-Jan-31 00:00:00.0000, 4.426454062989485E+08, 1.243738326221169E+08, -2.995234056992860E+07,
2461078.500000000, A.D. 2026-Feb-07 00:00:00.0000, 4.388792441732798E+08, 1.331502453488325E+08, -2.945580345985430E+07,
2461085.500000000, A.D. 2026-Feb-14 00:00:00.0000, 4.348935908078761E+08, 1.418600251423840E+08, -2.894453376136641E+07,
2461092.500000000, A.D. 2026-Feb-21 00:00:00.0000, 4.306887027283767E+08, 1.504982464066890E+08, -2.841867178030721E+07,
2461099.500000000, A.D. 2026-Feb-28 00:00:00.0000, 4.262649158833449E+08, 1.590599282114018E+08, -2.787836508782809E+07,
2461106.500000000, A.D. 2026-Mar-07 00:00:00.0000, 4.216226470348150E+08, 1.675400346100768E+08, -2.732376851386346E+07,
2461113.500000000, A.D. 2026-Mar-14 00:00:00.0000, 4.167623956444671E+08, 1.759334723241120E+08, -2.675504440242866E+07,
2461120.500000000, A.D. 2026-Mar-21 00:00:00.0000, 4.116847480408884E+08, 1.842350886968167E+08, -2.617236305544180E+07,
2461127.500000000, A.D. 2026-Mar-28 00:00:00.0000, 4.063903818604442E+08, 1.924396709560758E+08, -2.557590309647641E+07,
2461134.500000000, A.D. 2026-Apr-04 00:00:00.0000, 4.008800701627082E+08, 2.005419458320397E+08, -2.496585177790237E+07,
2461141.500000000, A.D. 2026-Apr-11 00:00:00.0000, 3.951546855010614E+08, 2.085365791823832E+08, -2.434240528600602E+07,
2461148.500000000, A.D. 2026-Apr-18 00:00:00.0000, 3.892152041150551E+08, 2.164181756306603E+08, -2.370576905931045E+07,
2461155.500000000, A.D. 2026-Apr-25 00:00:00.0000, 3.830627102971678E+08, 2.241812782445835E+08, -2.305615812308116E+07,
2461162.500000000, A.D. 2026-May-02 00:00:00.0000, 3.766984009704512E+08, 2.318203682373171E+08, -2.239379744513176E+07,
2461169.500000000, A.D. 2026-May-09 00:00:00.0000, 3.701235906067567E+08, 2.393298646394805E+08, -2.171892232959095E+07,
2461176.500000000, A.D. 2026-May-16 00:00:00.0000, 3.633397168683497E+08, 2.467041240951691E+08, -2.103177887185434E+07,
2461183.500000000, A.D. 2026-May-23 00:00:00.0000, 3.563483470281821E+08, 2.539374418192380E+08, -2.033262439578059E+07,
2461190.500000000, A.D. 2026-May-30 00:00:00.0000, 3.491511830906076E+08, 2.610240540520053E+08, -1.962172765589072E+07,
2461197.500000000, A.D. 2026-Jun-06 00:00:00.0000, 3.417500652974766E+08, 2.679581387594320E+08, -1.889936904256174E+07,
2461204.500000000, A.D. 2026-Jun-13 00:00:00.0000, 3.341469776905240E+08, 2.747338147987673E+08, -1.816584111029264E+07,
2461211.500000000, A.D. 2026-Jun-20 00:00:00.0000, 3.263440552296582E+08, 2.813451424953504E+08, -1.742144914380275E+07,
2461218.500000000, A.D. 2026-Jun-27 00:00:00.0000, 3.183435907673106E+08, 2.877861253130605E+08, -1.666651163351119E+07,
2461225.500000000, A.D. 2026-Jul-04 00:00:00.0000, 3.101480418772540E+08, 2.940507118680810E+08, -1.590136072324815E+07,
2461232.500000000, A.D. 2026-Jul-11 00:00:00.0000, 3.017600377894301E+08, 3.001327981799104E+08, -1.512634266372459E+07,
2461239.500000000, A.D. 2026-Jul-18 00:00:00.0000, 2.931823865195807E+08, 3.060262302125065E+08, -1.434181827746557E+07,
2461246.500000000, A.D. 2026-Jul-25 00:00:00.0000, 2.844180822124251E+08, 3.117248067368691E+08, -1.354816343632542E+07,
2461253.500000000, A.D. 2026-Aug-01 00:00:00.0000, 2.754703127388355E+08, 3.172222824971326E+08, -1.274576955880147E+07,
2461260.500000000, A.D. 2026-Aug-08 00:00:00.0000, 2.663424677523293E+08, 3.225123716763707E+08, -1.193504414843483E+07,
2461267.500000000, A.D. 2026-Aug-15 00:00:00.0000, 2.570381476088824E+08, 3.275887521461736E+08, -1.111641137306982E+07,
2461274.500000000, A.D. 2026-Aug-22 00:00:00.0000, 2.475611723751377E+08, 3.324450717540107E+08, -1.029031251368023E+07,
2461281.500000000, A.D. 2026-Aug-29 00:00:00.0000, 2.379155886152051E+08, 3.370749553087266E+08, -9.457206182538003E+06,
2461288.500000000, A.D. 2026-Sep-05 00:00:00.0000, 2.281056760675985E+08, 3.414720094363397E+08, -8.617568738074824E+06,
$$EOE